ONEWEB-0631             
1 55171U 23004AH  25135.50817947  .00000071  00000+0  14770-3 0  9994
2 55171  87.9160  54.4663 0002324  91.0000 269.1398 13.18686977117262
ONEWEB-0709             
1 55172U 23004AJ  25135.92705251 -.00000466  00000+0 -13521-2 0  9997
2 55172  87.8817 100.2800 0002199 109.7233 250.4132 13.11416248113810
ONEWEB-0710             
1 55173U 23004AK  25136.36135321  .00000096  00000+0  21292-3 0  9994
2 55173  87.9050  84.8980 0002161  80.8227 279.3149 13.17647373115325
ONEWEB-0711             
1 55174U 23004AL  25135.89824432  .00000463  00000+0  12699-2 0  9998
2 55174  87.8814 100.2535 0002789  77.6281 282.5159 13.11416301113775
ONEWEB-0713             
1 55175U 23004AM  25136.45096424 -.00000225  00000+0 -67161-3 0  9997
2 55175  87.8816 100.1509 0002291  81.1460 278.9927 13.11414673113823
ONEWEB-0715             
1 55176U 23004AN  25136.21698091 -.00000119  00000+0 -37049-3 0  9994
2 55176  87.8815 100.1981 0002202  92.4807 267.6573 13.11415992113848
ONEWEB-0716             
1 55177U 23004AP  25136.35461844  .00000058  00000+0  11597-3 0  9994
2 55177  87.9052  84.8983 0001825  78.9264 281.2073 13.17649220115320
ONEWEB-0717             
1 55178U 23004AQ  25136.33772345  .00000069  00000+0  14517-3 0  9991
2 55178  87.9052  84.8611 0002822  80.4331 279.7119 13.17647126115371
ONEWEB-0719             
1 55179U 23004AR  25136.34784349 -.00000176  00000+0 -48617-3 0  9999
2 55179  87.9052  84.8433 0001914  75.4114 284.7229 13.17649425115325
APSTAR-6E               
1 55239U 23005A   25135.93176766 -.00000303  00000+0  00000+0 0  9990
2 55239   0.0310 249.5173 0001986 275.9700 177.8662  1.00268424 24342
SHIYAN-22B (SY-22B)     
1 55243U 23006B   25136.11061488  .00062979  00000+0  67344-3 0  9995
2 55243  43.1852  53.3848 0023642 172.1739 187.9501 15.62673583130889
YAOGAN-37               
1 55244U 23006C   25136.48898650  .00003278  00000+0  18339-3 0  9992
2 55244  43.1954 157.1581 0007496  61.8847 298.2760 15.15251424129664
LINUSS1                 
1 55246U 22144G   25135.48656955 -.00000122  00000+0  00000+0 0  9993
2 55246   4.4039  66.7179 0009498 306.0238 219.3388  0.99057485  7729
LINUSS2                 
1 55247U 22144H   25136.53941321 -.00000190  00000+0  00000+0 0  9990
2 55247   4.4062  66.6996 0008386 314.0968 220.5086  0.99055875  7760
USA 342                 
1 55263U 23008A   25134.31267601  .00000155  00000+0  00000+0 0  9994
2 55263   0.0117 302.7612 0000406 326.3391  99.5792  1.00271157  3402
LDPE-3A                 
1 55264U 23008B   25135.54882675 -.00000273  00000+0  00000+0 0  9997
2 55264   1.1967  86.0936 0000887  28.9716 101.0233  0.99976819  7832
NAVSTAR 82 (USA 343)    
1 55268U 23009A   25134.84235767  .00000073  00000+0  00000+0 0  9995
2 55268  55.0922 164.1627 0003015 327.5148 214.4717  2.00571063 17252
STARLINK-5277           
1 55269U 23010A   25136.20569022  .00000557  00000+0  54477-4 0  9993
2 55269  69.9998  74.6016 0002923 270.8903  89.1921 14.98330849127917
STARLINK-5306           
1 55271U 23010C   25136.20986515  .00000277  00000+0  30982-4 0  9990
2 55271  70.0000  74.6173 0002837 268.3809  91.7025 14.98330722127916
STARLINK-5310           
1 55272U 23010D   25136.19317029  .00000452  00000+0  45652-4 0  9992
2 55272  69.9999  74.5628 0002055 258.2504 101.8425 14.98332702127914
STARLINK-5291           
1 55273U 23010E   25135.90108693 -.00000145  00000+0 -43849-5 0  9994
2 55273  69.9999  75.1487 0002848 268.6613  91.4219 14.98327154127876
STARLINK-5236           
1 55274U 23010F   25136.19712202  .00000129  00000+0  18643-4 0  9997
2 55274  70.0006  54.7068 0002746 268.8041  91.2804 14.98329869128392
STARLINK-5260           
1 55275U 23010G   25136.12218001  .00000788  00000+0  73807-4 0  9993
2 55275  70.0000  54.8478 0002723 273.4037  86.6811 14.98330313128397
STARLINK-5261           
1 55276U 23010H   25136.12201517 -.00000057  00000+0  30368-5 0  9994
2 55276  70.0003  54.8461 0002609 272.0380  88.0480 14.98328120128393
STARLINK-5299           
1 55277U 23010J   25136.19734204  .00000425  00000+0  43446-4 0  9994
2 55277  69.9997  74.5732 0002889 269.9086  90.1742 14.98331580127917
STARLINK-5289           
1 55278U 23010K   25136.24740405  .00000581  00000+0  56447-4 0  9999
2 55278  69.9998  74.3467 0003294 267.6846  92.3936 14.98332029127921
STARLINK-5323           
1 55279U 23010L   25135.19512330  .00362511  00000+0  12764-1 0  9992
2 55279  69.9981  75.9053 0004459 242.4845 117.5876 15.27592012128103
STARLINK-5331           
1 55280U 23010M   25136.21821333 -.00000079  00000+0  11791-5 0  9996
2 55280  70.0000  74.6369 0002761 269.4483  90.6360 14.98331811127908
STARLINK-5298           
1 55281U 23010N   25136.18899564 -.00000019  00000+0  62044-5 0  9995
2 55281  69.9998  74.5436 0002826 271.1383  88.9452 14.98329805127910
STARLINK-5330           
1 55282U 23010P   25135.91668981 -.00030364  00000+0 -25463-2 0  9991
2 55282  70.0020  75.0779 0002996 266.1238 199.7099 14.98355658127875
STARLINK-5317           
1 55283U 23010Q   25136.11806263  .00000322  00000+0  34800-4 0  9998
2 55283  69.9997  74.6976 0002972 269.2858  90.7960 14.98327631127907
STARLINK-5337           
1 55284U 23010R   25134.29530785 -.00086137  00000+0 -74271-2 0  9993
2 55284  70.0000  79.1682 0002800 226.2839 133.8088 14.97664176127932
STARLINK-5332           
1 55285U 23010S   25134.73628113  .00038210  00000+0  31655-2 0  9992
2 55285  69.9999  38.1477 0005046 272.8988  87.1593 14.98655128129865
STARLINK-5338           
1 55286U 23010T   25135.17902311 -.00000278  00000+0 -15514-4 0  9990
2 55286  70.0006  57.1724 0002793 267.9393  92.1446 14.98330118128552
STARLINK-5341           
1 55287U 23010U   25136.12178355  .00000027  00000+0  10070-4 0  9992
2 55287  70.0004  34.8802 0002335 266.6617  93.4275 14.98331198128875
STARLINK-5311           
1 55288U 23010V   25136.10130416  .00000631  00000+0  60626-4 0  9990
2 55288  70.0004  54.7696 0002679 271.5751  88.5101 14.98332920128397
STARLINK-5320           
1 55289U 23010W   25135.18319914  .00001022  00000+0  93406-4 0  9997
2 55289  70.0004  57.1865 0002873 268.8530  91.2299 14.98334164128552
STARLINK-5266           
1 55290U 23010X   25136.10947078 -.00000870  00000+0 -65069-4 0  9996
2 55290  70.0001  54.7988 0002469 274.1013  85.9863 14.98358838128390
STARLINK-5327           
1 55291U 23010Y   25136.19294759  .00000217  00000+0  25983-4 0  9991
2 55291  70.0003  54.6886 0002818 267.3332  92.7505 14.98327789128395
STARLINK-5325           
1 55292U 23010Z   25135.89668711  .00000062  00000+0  13019-4 0  9996
2 55292  70.0009  55.2583 0002829 276.7082  83.3755 14.98330537128355
STARLINK-5287           
1 55293U 23010AA  25136.25002315  .00012255  00000+0  10334-2 0  9992
2 55293  70.0021  54.3946 0002830 273.4811 169.4533 14.98318569128417
STARLINK-5286           
1 55294U 23010AB  25135.90525919  .00001065  00000+0  97029-4 0  9999
2 55294  69.9996  75.1551 0002831 269.4020  90.6815 14.98329620127874
STARLINK-5293           
1 55295U 23010AC  25136.21403769 -.00000283  00000+0 -15946-4 0  9994
2 55295  70.0002  74.6310 0002972 267.6016  92.4803 14.98331723127913
STARLINK-5285           
1 55296U 23010AD  25136.08444583 -.00000461  00000+0 -30813-4 0  9997
2 55296  70.0010  54.7106 0002699 262.5848  97.5004 14.98327219128384
STARLINK-5284           
1 55297U 23010AE  25135.89251591  .00000037  00000+0  10874-4 0  9993
2 55297  70.0007  55.2470 0002791 269.9469  90.1370 14.98327404128352
STARLINK-5270           
1 55299U 23010AG  25136.21380466  .00000179  00000+0  22785-4 0  9997
2 55299  70.0010  54.3598 0002637 266.6500  93.4358 14.98325911128407
STARLINK-5308           
1 55300U 23010AH  25136.20961583  .00000116  00000+0  17473-4 0  9993
2 55300  70.0007  54.3445 0002356 269.2798  90.8091 14.98329825128406
STARLINK-5321           
1 55302U 23010AK  25136.08861586  .00001066  00000+0  97098-4 0  9999
2 55302  70.0005  54.7230 0002928 264.6726  95.4099 14.98321853128386
STARLINK-5322           
1 55303U 23010AL  25136.22653138  .00000235  00000+0  27502-4 0  9998
2 55303  70.0013  74.2721 0002388 258.3777 101.7114 14.98342728127926
STARLINK-5318           
1 55304U 23010AM  25136.20543999  .00000068  00000+0  13479-4 0  9992
2 55304  70.0007  54.3290 0002613 267.9120  92.1740 14.98333505128404
STARLINK-5316           
1 55305U 23010AN  25136.20129434 -.00000186  00000+0 -77611-5 0  9999
2 55305  70.0002  54.7197 0002885 271.4537  88.6291 14.98332342128390
STARLINK-5295           
1 55306U 23010AP  25136.10509469 -.00000540  00000+0 -37478-4 0  9999
2 55306  70.0010  34.9094 0002740 270.5976  89.4869 14.98326759128882
STARLINK-5288           
1 55307U 23010AQ  25135.17462637 -.00001037  00000+0 -79080-4 0  9998
2 55307  70.0008  37.2805 0002890 273.4777  86.6052 14.98335443129056
STARLINK-5315           
1 55309U 23010AS  25136.12593531  .00000084  00000+0  14805-4 0  9997
2 55309  70.0005  34.5799 0002911 268.8107  91.2719 14.98330237128895
STARLINK-5309           
1 55310U 23010AT  25136.09674290  .00000393  00000+0  40732-4 0  9998
2 55310  70.0004  34.8786 0002816 271.3911  88.6925 14.98324959128872
STARLINK-5312           
1 55311U 23010AU  25136.03415580  .00000021  00000+0  95931-5 0  9998
2 55311  70.0010  35.0618 0002914 271.2078  88.8747 14.98334078128876
STARLINK-5296           
1 55312U 23010AV  25136.20526761 -.00003186  00000+0 -25955-3 0  9996
2 55312  70.0014  34.3435 0001621 336.9951  23.1135 14.98307057128895
STARLINK-5313           
1 55313U 23010AW  25136.08839490 -.00000520  00000+0 -35798-4 0  9995
2 55313  70.0000  34.8505 0002939 268.3693  91.7130 14.98333579128870
STARLINK-5305           
1 55314U 23010AX  25135.89228822  .00000451  00000+0  45613-4 0  9993
2 55314  70.0003  35.3679 0002924 271.3131  88.7693 14.98330888128855
